ONEWEB-0319             
1 49105U 21075AG  25104.89341367  .00000007  00000+0 -16291-4 0  9997
2 49105  87.9015  91.1806 0002268  97.4658 262.6731 13.17647424177206
ONEWEB-0323             
1 49106U 21075AH  25104.89278828  .00000251  00000+0  66121-3 0  9995
2 49106  87.8835  75.8635 0002465  99.8189 260.3217 13.12444209178373
ONEWEB-0329             
1 49107U 21075AJ  25104.90183336  .00000021  00000+0  19976-4 0  9999
2 49107  87.9015  91.1836 0002016  94.4585 265.6776 13.17651917177189
ONEWEB-0330             
1 49108U 21075AK  25104.90352205 -.00000012  00000+0 -63281-4 0  9993
2 49108  87.9015  91.1855 0001861  93.9040 266.2304 13.17646482177228
ONEWEB-0292             
1 49186U 21083A   25104.89513021  .00000397  00000+0  10518-2 0  9998
2 49186  87.8981  45.3777 0002080  82.9859 277.1507 13.13468689174702
ONEWEB-0303             
1 49187U 21083B   25104.90623189 -.00001699  00000+0 -43426-2 0  9990
2 49187  87.9113  60.5831 0002267  86.2430 273.8962 13.18674847173538
ONEWEB-0306             
1 49188U 21083C   25104.89675656  .00000074  00000+0  15506-3 0  9998
2 49188  87.9118  60.5702 0001827  80.8865 279.2473 13.18685307173578
ONEWEB-0307             
1 49189U 21083D   25104.88918391  .00000324  00000+0  85271-3 0  9998
2 49189  87.8981  45.3821 0001546  78.9287 281.2016 13.13472739174703
